[{"OBJECT_NAME":"STARLINK-5209","OBJECT_ID":"2022-136L","EPOCH":"2026-03-09T20:21:09.214848","MEAN_MOTION":15.08857145,"ECCENTRICITY":0.00014375,"INCLINATION":53.2181,"RA_OF_ASC_NODE":308.0224,"ARG_OF_PERICENTER":87.1231,"MEAN_ANOMALY":272.9926,"EPHEMERIS_TYPE":0,"CLASSIFICATION_TYPE":"U","NORAD_CAT_ID":54061,"ELEMENT_SET_NO":999,"REV_AT_EPOCH":18736,"BSTAR":0.00012387334,"MEAN_MOTION_DOT":1.685e-5,"MEAN_MOTION_DDOT":0},{"OBJECT_NAME":"NOAA 17 DEB","OBJECT_ID":"2002-032DT","EPOCH":"2026-03-08T22:47:54.624192","MEAN_MOTION":15.08678856,"ECCENTRICITY":0.0018728,"INCLINATION":98.77,"RA_OF_ASC_NODE":121.3607,"ARG_OF_PERICENTER":298.7191,"MEAN_ANOMALY":61.2152,"EPHEMERIS_TYPE":0,"CLASSIFICATION_TYPE":"U","NORAD_CAT_ID":49489,"ELEMENT_SET_NO":999,"REV_AT_EPOCH":24229,"BSTAR":0.0068247859,"MEAN_MOTION_DOT":0.00108865,"MEAN_MOTION_DDOT":0}]
